SL-16 R/B               
1 22566U 93016B   26046.79928385 -.00000233  00000+0 -95298-4 0  9995
2 22566  71.0049 261.1600 0010558 344.0015  16.0773 14.15301304699073
COSMOS 2242             
1 22626U 93024A   26046.70444998  .00001887  00000+0  16362-3 0  9993
2 22626  82.5184 287.7467 0017080  24.3152 335.8872 14.96458217777107
SL-16 R/B               
1 22803U 93059B   26046.45553292 -.00000143  00000+0 -47075-4 0  9990
2 22803  70.9890  58.0143 0019400 247.2090 112.6984 14.17227966676385
ARIANE 40 R/B           
1 22830U 93061H   26046.77171391  .00000209  00000+0  92400-4 0  9997
2 22830  98.4964 116.0867 0010362 355.5169   4.5921 14.32849066690966
COSMOS 2278             
1 23087U 94023A   26046.74400468  .00000110  00000+0  82132-4 0  9990
2 23087  71.0504 221.0101 0006933  56.0990 304.0791 14.14364054641700
SL-16 R/B               
1 23088U 94023B   26046.58835588  .00000330  00000+0  19503-3 0  9993
2 23088  70.9994 117.3056 0004696 306.7568  53.3123 14.15006625642968
SL-16 R/B               
1 23343U 94074B   26046.61841431  .00000534  00000+0  78281-4 0  9996
2 23343  97.7139  78.3269 0005263 299.9673 173.4026 14.79381301683983
SL-16 R/B               
1 23405U 94077B   26046.36659443  .00000323  00000+0  18975-3 0  9999
2 23405  70.9826  39.4512 0004009 231.7333 128.3430 14.15561323613076
ARIANE 40+ R/B          
1 23561U 95021B   26046.79588727  .00000318  00000+0  11534-3 0  9993
2 23561  98.4545 118.5702 0006503 197.7897 271.5781 14.39756053616096
SL-16 R/B               
1 23705U 95058B   26046.79647874  .00000019  00000+0  33965-4 0  9993
2 23705  71.0196 226.2178 0011732 163.2434 196.9079 14.15495847564754
SL-16 R/B               
1 24298U 96051B   26046.78644051  .00000098  00000+0  79718-4 0  9991
2 24298  70.7569 221.5987 0016964 179.1547 180.9604 14.12409425518559
ORBVIEW 2 (SEASTAR)     
1 24883U 97037A   26046.46159648  .00000391  00000+0  15217-3 0  9993
2 24883  98.8527 210.1894 0003161 116.9628 243.1880 14.35477897505286
