CCSDS_OMM_VERS = 2.0
CREATION_DATE  = 
ORIGINATOR     = 

OBJECT_NAME    = SL-16 R/B
OBJECT_ID      = 1993-016B
CENTER_NAME    = EARTH
REF_FRAME      = TEME
TIME_SYSTEM    = UTC
MEAN_ELEMENT_THEORY = SGP/SGP4

EPOCH          = 2026-02-15T19:10:58.124640
MEAN_MOTION    = 14.15301304
ECCENTRICITY   = .0010558
INCLINATION    = 71.0049
RA_OF_ASC_NODE = 261.1600
ARG_OF_PERICENTER = 344.0015
MEAN_ANOMALY   = 16.0773

EPHEMERIS_TYPE = 0
CLASSIFICATION_TYPE = U
NORAD_CAT_ID   = 22566
ELEMENT_SET_NO = 999
REV_AT_EPOCH   = 69907
BSTAR          = -.95298E-4
MEAN_MOTION_DOT = -.233E-5
MEAN_MOTION_DDOT = 0

CCSDS_OMM_VERS = 2.0
CREATION_DATE  = 
ORIGINATOR     = 

OBJECT_NAME    = COSMOS 2242
OBJECT_ID      = 1993-024A
CENTER_NAME    = EARTH
REF_FRAME      = TEME
TIME_SYSTEM    = UTC
MEAN_ELEMENT_THEORY = SGP/SGP4

EPOCH          = 2026-02-15T16:54:24.478272
MEAN_MOTION    = 14.96458217
ECCENTRICITY   = .001708
INCLINATION    = 82.5184
RA_OF_ASC_NODE = 287.7467
ARG_OF_PERICENTER = 24.3152
MEAN_ANOMALY   = 335.8872

EPHEMERIS_TYPE = 0
CLASSIFICATION_TYPE = U
NORAD_CAT_ID   = 22626
ELEMENT_SET_NO = 999
REV_AT_EPOCH   = 77710
BSTAR          = .16362E-3
MEAN_MOTION_DOT = .1887E-4
MEAN_MOTION_DDOT = 0

CCSDS_OMM_VERS = 2.0
CREATION_DATE  = 
ORIGINATOR     = 

OBJECT_NAME    = SL-16 R/B
OBJECT_ID      = 1993-059B
CENTER_NAME    = EARTH
REF_FRAME      = TEME
TIME_SYSTEM    = UTC
MEAN_ELEMENT_THEORY = SGP/SGP4

EPOCH          = 2026-02-15T10:55:58.044288
MEAN_MOTION    = 14.17227966
ECCENTRICITY   = .00194006
INCLINATION    = 70.9890
RA_OF_ASC_NODE = 58.0143
ARG_OF_PERICENTER = 247.2090
MEAN_ANOMALY   = 112.6984

EPHEMERIS_TYPE = 0
CLASSIFICATION_TYPE = U
NORAD_CAT_ID   = 22803
ELEMENT_SET_NO = 999
REV_AT_EPOCH   = 67638
BSTAR          = -.47075409E-4
MEAN_MOTION_DOT = -.143E-5
MEAN_MOTION_DDOT = 0

CCSDS_OMM_VERS = 2.0
CREATION_DATE  = 
ORIGINATOR     = 

OBJECT_NAME    = ARIANE 40 R/B
OBJECT_ID      = 1993-061H
CENTER_NAME    = EARTH
REF_FRAME      = TEME
TIME_SYSTEM    = UTC
MEAN_ELEMENT_THEORY = SGP/SGP4

EPOCH          = 2026-02-15T18:31:16.081824
MEAN_MOTION    = 14.32849066
ECCENTRICITY   = .0010362
INCLINATION    = 98.4964
RA_OF_ASC_NODE = 116.0867
ARG_OF_PERICENTER = 355.5169
MEAN_ANOMALY   = 4.5921

EPHEMERIS_TYPE = 0
CLASSIFICATION_TYPE = U
NORAD_CAT_ID   = 22830
ELEMENT_SET_NO = 999
REV_AT_EPOCH   = 69096
BSTAR          = .924E-4
MEAN_MOTION_DOT = .209E-5
MEAN_MOTION_DDOT = 0

CCSDS_OMM_VERS = 2.0
CREATION_DATE  = 
ORIGINATOR     = 

OBJECT_NAME    = COSMOS 2278
OBJECT_ID      = 1994-023A
CENTER_NAME    = EARTH
REF_FRAME      = TEME
TIME_SYSTEM    = UTC
MEAN_ELEMENT_THEORY = SGP/SGP4

EPOCH          = 2026-02-15T17:51:22.004352
MEAN_MOTION    = 14.14364054
ECCENTRICITY   = .0006933
INCLINATION    = 71.0504
RA_OF_ASC_NODE = 221.0101
ARG_OF_PERICENTER = 56.0990
MEAN_ANOMALY   = 304.0791

EPHEMERIS_TYPE = 0
CLASSIFICATION_TYPE = U
NORAD_CAT_ID   = 23087
ELEMENT_SET_NO = 999
REV_AT_EPOCH   = 64170
BSTAR          = .82132E-4
MEAN_MOTION_DOT = .11E-5
MEAN_MOTION_DDOT = 0

CCSDS_OMM_VERS = 2.0
CREATION_DATE  = 
ORIGINATOR     = 

OBJECT_NAME    = SL-16 R/B
OBJECT_ID      = 1994-023B
CENTER_NAME    = EARTH
REF_FRAME      = TEME
TIME_SYSTEM    = UTC
MEAN_ELEMENT_THEORY = SGP/SGP4

EPOCH          = 2026-02-15T14:07:13.948032
MEAN_MOTION    = 14.15006625
ECCENTRICITY   = .0004696
INCLINATION    = 70.9994
RA_OF_ASC_NODE = 117.3056
ARG_OF_PERICENTER = 306.7568
MEAN_ANOMALY   = 53.3123

EPHEMERIS_TYPE = 0
CLASSIFICATION_TYPE = U
NORAD_CAT_ID   = 23088
ELEMENT_SET_NO = 999
REV_AT_EPOCH   = 64296
BSTAR          = .19503E-3
MEAN_MOTION_DOT = .33E-5
MEAN_MOTION_DDOT = 0

CCSDS_OMM_VERS = 2.0
CREATION_DATE  = 
ORIGINATOR     = 

OBJECT_NAME    = SL-16 R/B
OBJECT_ID      = 1994-074B
CENTER_NAME    = EARTH
REF_FRAME      = TEME
TIME_SYSTEM    = UTC
MEAN_ELEMENT_THEORY = SGP/SGP4

EPOCH          = 2026-02-15T14:50:30.996384
MEAN_MOTION    = 14.79381301
ECCENTRICITY   = .0005263
INCLINATION    = 97.7139
RA_OF_ASC_NODE = 78.3269
ARG_OF_PERICENTER = 299.9673
MEAN_ANOMALY   = 173.4026

EPHEMERIS_TYPE = 0
CLASSIFICATION_TYPE = U
NORAD_CAT_ID   = 23343
ELEMENT_SET_NO = 999
REV_AT_EPOCH   = 68398
BSTAR          = .78281E-4
MEAN_MOTION_DOT = .534E-5
MEAN_MOTION_DDOT = 0

CCSDS_OMM_VERS = 2.0
CREATION_DATE  = 
ORIGINATOR     = 

OBJECT_NAME    = SL-16 R/B
OBJECT_ID      = 1994-077B
CENTER_NAME    = EARTH
REF_FRAME      = TEME
TIME_SYSTEM    = UTC
MEAN_ELEMENT_THEORY = SGP/SGP4

EPOCH          = 2026-02-15T08:47:53.758752
MEAN_MOTION    = 14.15561323
ECCENTRICITY   = .00040095
INCLINATION    = 70.9826
RA_OF_ASC_NODE = 39.4512
ARG_OF_PERICENTER = 231.7333
MEAN_ANOMALY   = 128.3430

EPHEMERIS_TYPE = 0
CLASSIFICATION_TYPE = U
NORAD_CAT_ID   = 23405
ELEMENT_SET_NO = 999
REV_AT_EPOCH   = 61307
BSTAR          = .18974827E-3
MEAN_MOTION_DOT = .323E-5
MEAN_MOTION_DDOT = 0

CCSDS_OMM_VERS = 2.0
CREATION_DATE  = 
ORIGINATOR     = 

OBJECT_NAME    = ARIANE 40+ R/B
OBJECT_ID      = 1995-021B
CENTER_NAME    = EARTH
REF_FRAME      = TEME
TIME_SYSTEM    = UTC
MEAN_ELEMENT_THEORY = SGP/SGP4

EPOCH          = 2026-02-15T19:06:04.660128
MEAN_MOTION    = 14.39756053
ECCENTRICITY   = .0006503
INCLINATION    = 98.4545
RA_OF_ASC_NODE = 118.5702
ARG_OF_PERICENTER = 197.7897
MEAN_ANOMALY   = 271.5781

EPHEMERIS_TYPE = 0
CLASSIFICATION_TYPE = U
NORAD_CAT_ID   = 23561
ELEMENT_SET_NO = 999
REV_AT_EPOCH   = 61609
BSTAR          = .11534E-3
MEAN_MOTION_DOT = .318E-5
MEAN_MOTION_DDOT = 0

CCSDS_OMM_VERS = 2.0
CREATION_DATE  = 
ORIGINATOR     = 

OBJECT_NAME    = SL-16 R/B
OBJECT_ID      = 1995-058B
CENTER_NAME    = EARTH
REF_FRAME      = TEME
TIME_SYSTEM    = UTC
MEAN_ELEMENT_THEORY = SGP/SGP4

EPOCH          = 2026-02-15T19:06:55.763136
MEAN_MOTION    = 14.15495847
ECCENTRICITY   = .0011732
INCLINATION    = 71.0196
RA_OF_ASC_NODE = 226.2178
ARG_OF_PERICENTER = 163.2434
MEAN_ANOMALY   = 196.9079

EPHEMERIS_TYPE = 0
CLASSIFICATION_TYPE = U
NORAD_CAT_ID   = 23705
ELEMENT_SET_NO = 999
REV_AT_EPOCH   = 56475
BSTAR          = .33965E-4
MEAN_MOTION_DOT = .19E-6
MEAN_MOTION_DDOT = 0

CCSDS_OMM_VERS = 2.0
CREATION_DATE  = 
ORIGINATOR     = 

OBJECT_NAME    = SL-16 R/B
OBJECT_ID      = 1996-051B
CENTER_NAME    = EARTH
REF_FRAME      = TEME
TIME_SYSTEM    = UTC
MEAN_ELEMENT_THEORY = SGP/SGP4

EPOCH          = 2026-02-15T18:52:28.460064
MEAN_MOTION    = 14.12409425
ECCENTRICITY   = .0016964
INCLINATION    = 70.7569
RA_OF_ASC_NODE = 221.5987
ARG_OF_PERICENTER = 179.1547
MEAN_ANOMALY   = 180.9604

EPHEMERIS_TYPE = 0
CLASSIFICATION_TYPE = U
NORAD_CAT_ID   = 24298
ELEMENT_SET_NO = 999
REV_AT_EPOCH   = 51855
BSTAR          = .79718E-4
MEAN_MOTION_DOT = .98E-6
MEAN_MOTION_DDOT = 0

CCSDS_OMM_VERS = 2.0
CREATION_DATE  = 
ORIGINATOR     = 

OBJECT_NAME    = ORBVIEW 2 (SEASTAR)
OBJECT_ID      = 1997-037A
CENTER_NAME    = EARTH
REF_FRAME      = TEME
TIME_SYSTEM    = UTC
MEAN_ELEMENT_THEORY = SGP/SGP4

EPOCH          = 2026-02-15T11:04:41.935872
MEAN_MOTION    = 14.35477897
ECCENTRICITY   = .00031614
INCLINATION    = 98.8527
RA_OF_ASC_NODE = 210.1894
ARG_OF_PERICENTER = 116.9628
MEAN_ANOMALY   = 243.1880

EPHEMERIS_TYPE = 0
CLASSIFICATION_TYPE = U
NORAD_CAT_ID   = 24883
ELEMENT_SET_NO = 999
REV_AT_EPOCH   = 50528
BSTAR          = .15217162E-3
MEAN_MOTION_DOT = .391E-5
MEAN_MOTION_DDOT = 0

